[{"OBJECT_NAME":"STARLINK-33998","OBJECT_ID":"2025-098AB","EPOCH":"2026-03-09T21:14:05.678016","MEAN_MOTION":14.98318546,"ECCENTRICITY":0.00028007,"INCLINATION":70.0003,"RA_OF_ASC_NODE":273.8837,"ARG_OF_PERICENTER":263.9034,"MEAN_ANOMALY":96.1806,"EPHEMERIS_TYPE":0,"CLASSIFICATION_TYPE":"U","NORAD_CAT_ID":63951,"ELEMENT_SET_NO":999,"REV_AT_EPOCH":4658,"BSTAR":-0.00016876165,"MEAN_MOTION_DOT":-2.105e-5,"MEAN_MOTION_DDOT":0},{"OBJECT_NAME":"DELTA 1 DEB","OBJECT_ID":"1977-065BE","EPOCH":"2026-03-09T09:09:48.919680","MEAN_MOTION":13.52845319,"ECCENTRICITY":0.06744391,"INCLINATION":28.949,"RA_OF_ASC_NODE":116.2566,"ARG_OF_PERICENTER":133.7592,"MEAN_ANOMALY":232.0825,"EPHEMERIS_TYPE":0,"CLASSIFICATION_TYPE":"U","NORAD_CAT_ID":10227,"ELEMENT_SET_NO":999,"REV_AT_EPOCH":36115,"BSTAR":0.00043535963,"MEAN_MOTION_DOT":1.389e-5,"MEAN_MOTION_DDOT":0}]
